OBJECT_NAME,OBJECT_ID,EPOCH,MEAN_MOTION,ECCENTRICITY,INCLINATION,RA_OF_ASC_NODE,ARG_OF_PERICENTER,MEAN_ANOMALY,EPHEMERIS_TYPE,CLASSIFICATION_TYPE,NORAD_CAT_ID,ELEMENT_SET_NO,REV_AT_EPOCH,BSTAR,MEAN_MOTION_DOT,MEAN_MOTION_DDOT
STARLINK-5490,2023-094AN,2026-06-25T20:12:44.716608,15.27561903,.0001591,43.0066,128.8276,273.9917,86.0753,0,U,57254,999,16378,-.14864E-4,-.671E-5,0
STARLINK-5481,2023-094AP,2026-06-25T13:50:32.006112,15.27578795,.0000768,43.0019,130.2741,269.6265,90.4498,0,U,57255,999,16374,.16836E-4,.201E-5,0
STARLINK-5512,2023-094AQ,2026-06-25T20:44:10.006080,15.27531928,.0000886,43.0042,129.0025,248.7575,111.3182,0,U,57256,999,16378,.33387E-3,.8923E-4,0
STARLINK-5503,2023-094AR,2026-06-25T14:23:50.571168,15.27578173,.0001619,43.0032,130.4506,270.1360,89.9306,0,U,57257,999,16440,.53731E-4,.1216E-4,0
STARLINK-5476,2023-094AS,2026-06-25T14:07:11.071776,15.27579213,.000097,43.0048,130.3582,271.5858,88.4883,0,U,57258,999,16374,.24681E-4,.417E-5,0
STARLINK-5026,2023-094AU,2026-06-25T20:27:30.937824,15.27576271,.0001282,43.0047,128.9007,272.1120,87.9584,0,U,57260,999,16442,.79665E-5,-.43E-6,0
STARLINK-5485,2023-094AV,2026-06-25T14:58:46.308576,15.27569062,.000156,43.0046,141.0764,266.6278,93.4395,0,U,57261,999,16362,.99423E-4,.2474E-4,0
STARLINK-5504,2023-094AW,2026-06-25T14:01:38.505216,15.27583614,.0001178,43.0046,130.3299,273.1197,86.9520,0,U,57262,999,16374,-.25474E-4,-.963E-5,0
STARLINK-5509,2023-094AX,2026-06-25T14:53:13.500960,15.27565891,.0001023,43.0031,141.0523,269.0187,91.0548,0,U,57263,999,16362,-.79512E-4,-.2448E-4,0
STARLINK-5858,2023-094AY,2026-06-25T20:33:04.410720,15.27585300,.0001707,43.0047,128.9294,275.2279,84.8378,0,U,57264,999,16378,.70049E-4,.1666E-4,0
HULIANWANG JISHU SHIYAN A,2023-095A,2026-06-25T20:19:11.694432,13.39543103,.0018252,86.5029,1.7767,161.1036,199.0788,0,U,57288,999,14491,.98106E-4,.68E-6,0
HULIANWANG JISHU SHIYAN B,2023-095B,2026-06-25T20:07:07.995936,13.39551801,.0016891,86.5030,1.7888,158.7535,201.4312,0,U,57289,999,14491,.10185E-3,.7E-6,0
STARLINK-30198,2023-096A,2026-06-25T19:50:36.544704,15.26089337,.0008681,42.9890,336.8405,291.1920,68.8003,0,U,57290,999,16410,.13352E-2,.3506E-3,0
STARLINK-30239,2023-096B,2026-06-25T19:23:12.255936,15.27548439,.0000115,43.0040,332.5027,208.3134,151.7711,0,U,57291,999,16415,.20375E-3,.5344E-4,0
STARLINK-30235,2023-096E,2026-06-25T11:41:39.497280,15.27595453,.0001111,43.0020,334.3964,273.4422,86.6302,0,U,57294,999,16410,-.1684E-3,-.4895E-4,0
STARLINK-30236,2023-096L,2026-06-25T11:47:13.354656,15.27555879,.0001187,43.0025,334.4142,264.0247,96.0469,0,U,57300,999,16414,.19418E-3,.5081E-4,0
STARLINK-30201,2023-096M,2026-06-25T04:11:14.411904,15.27577977,.000197,43.0053,336.3432,280.8802,79.1828,0,U,57301,999,16315,.19228939E-4,.267E-5,0
STARLINK-30233,2023-096N,2026-06-25T11:52:44.410080,15.27593185,.0001655,43.0051,334.4302,264.8600,95.2063,0,U,57302,999,16320,.97834E-4,.2432E-4,0
STARLINK-30184,2023-096W,2026-06-25T17:26:39.552288,15.27591941,.0001242,43.0053,304.3306,271.2975,88.7734,0,U,57310,999,16357,.58767E-4,.1356E-4,0
STARLINK-6290,2023-099A,2026-06-25T20:41:02.285664,15.27579382,.0001854,43.0035,1.1890,246.7839,113.2818,0,U,57328,999,16353,.27133E-4,.484E-5,0
STARLINK-6138,2023-099B,2026-06-25T13:27:15.674976,15.27583835,.0001432,43.0038,3.2288,272.6214,87.4474,0,U,57329,999,16257,-.49272E-4,-.1618E-4,0
STARLINK-6212,2023-099C,2026-06-25T05:16:07.480992,15.27578279,.000121,43.0038,4.9692,267.4040,92.6674,0,U,57330,999,16252,.76015E-5,-.53E-6,0
STARLINK-6234,2023-099D,2026-06-25T13:12:29.916864,15.27559210,.0000833,43.0048,3.1523,274.9352,85.1405,0,U,57331,999,16257,-.64738E-4,-.2042E-4,0
STARLINK-5831,2023-099E,2026-06-25T13:16:09.999264,15.27586351,.0001139,43.0051,3.1702,272.4372,87.6349,0,U,57332,999,16257,.86532E-4,.212E-4,0
STARLINK-5585,2023-099F,2026-06-25T13:21:41.086656,15.27596726,.0001423,43.0038,3.1991,273.5174,86.5515,0,U,57333,999,16257,.11519E-3,.291E-4,0
STARLINK-5589,2023-099G,2026-06-25T13:32:48.530112,15.27575348,.0001089,43.0041,3.2518,267.3490,92.7237,0,U,57334,999,16257,-.11896E-5,-.295E-5,0
STARLINK-6316,2023-099H,2026-06-24T22:17:51.768096,15.27572386,.00013243,43.0022,3.6819,275.8944,84.1756,0,U,57335,999,16251,-.17363727E-4,-.74E-5,0
STARLINK-6320,2023-099J,2026-06-25T13:50:10.021632,15.27580354,.0001634,43.0051,359.9189,273.6883,86.3782,0,U,57336,999,16261,.72783E-5,-.62E-6,0
STARLINK-6322,2023-099K,2026-06-25T13:43:54.401952,15.27579144,.0001679,43.0063,3.3086,265.8060,94.2600,0,U,57337,999,16257,.1659E-4,.194E-5,0
STARLINK-6374,2023-099L,2026-06-25T13:47:37.021056,15.27575379,.0001655,43.0062,3.3275,274.5891,85.4771,0,U,57338,999,16257,.80426E-4,.1951E-4,0
STARLINK-6332,2023-099M,2026-06-25T13:38:21.408576,15.27577729,.0001687,43.0050,3.2821,278.8825,81.1835,0,U,57339,999,16257,.25142E-4,.43E-5,0
STARLINK-6321,2023-099N,2026-06-25T12:35:39.552576,15.27580494,.0001833,43.0031,3.8078,265.6833,94.3809,0,U,57340,999,16256,.34996E-5,-.166E-5,0
STARLINK-6377,2023-099P,2026-06-25T13:19:09.191136,15.27576874,.0000956,43.0029,6.5936,249.2372,110.8377,0,U,57341,999,16253,.70619E-4,.1682E-4,0
STARLINK-6375,2023-099Q,2026-06-25T05:44:35.278080,15.27565483,.000187,43.0059,1.7064,258.7440,101.3202,0,U,57342,999,16256,.14733E-3,.3792E-4,0
STARLINK-6379,2023-099R,2026-06-25T13:58:40.986048,15.27586118,.0001634,43.0061,3.3823,251.4262,108.6412,0,U,57343,999,16257,.86019E-4,.2106E-4,0
STARLINK-6380,2023-099S,2026-06-25T14:29:57.726240,15.27574773,.0001242,43.0025,2.6838,266.8863,93.1847,0,U,57344,999,16258,.49014E-5,-.127E-5,0
STARLINK-6373,2023-099T,2026-06-25T05:24:39.447648,15.27572885,.0001339,42.9984,8.4149,258.9294,101.1407,0,U,57345,999,16248,-.45589E-4,-.1516E-4,0
STARLINK-6359,2023-099U,2026-06-25T20:17:53.833344,15.27578048,.000154,43.0035,358.5115,266.4712,93.5963,0,U,57346,999,16265,.28148E-4,.512E-5,0
STARLINK-6378,2023-099V,2026-06-25T13:24:42.270048,15.27584357,.0001156,43.0032,6.6222,270.5264,89.5455,0,U,57347,999,16253,-.28423E-4,-.1044E-4,0
STARLINK-6372,2023-099W,2026-06-25T13:44:38.158368,15.27583077,.0001766,43.0057,359.9034,267.4790,92.5859,0,U,57348,999,16261,.81687E-4,.1986E-4,0
STARLINK-6376,2023-099X,2026-06-25T05:20:30.467040,15.27592773,.0002074,43.0059,1.5790,296.5791,63.4848,0,U,57349,999,16328,.88325E-4,.217E-4,0
STARLINK-6362,2023-099Y,2026-06-25T13:16:22.478016,15.27585051,.0001843,43.0057,352.7001,272.8643,87.1998,0,U,57350,999,16268,-.91602E-4,-.2783E-4,0
STARLINK-6331,2023-099Z,2026-06-25T20:39:53.745408,15.27574717,.0001375,43.0049,357.7678,269.8012,90.2682,0,U,57351,999,16266,.22942E-4,.369E-5,0
STARLINK-6297,2023-099AA,2026-06-25T13:07:08.768064,15.27568729,.000177,43.0054,352.6516,274.4540,85.6109,0,U,57352,999,16269,-.12521E-4,-.607E-5,0
STARLINK-6324,2023-099AB,2026-06-25T13:20:33.978912,15.27583501,.0001227,43.0056,359.7776,268.7872,91.2839,0,U,57353,999,16261,-.33459E-4,-.1183E-4,0
STARLINK-6293,2023-099AC,2026-06-25T13:03:25.208064,15.27576849,.0001573,43.0039,352.6262,270.3612,89.7059,0,U,57354,999,16269,.43047E-4,.922E-5,0
STARLINK-6276,2023-099AD,2026-06-25T19:53:20.449824,15.27582963,.0001512,43.0038,351.3229,274.1380,85.9299,0,U,57355,999,16273,.53395E-4,.1207E-4,0
STARLINK-6355,2023-099AE,2026-06-25T11:49:37.208928,15.27570934,.0001586,43.0045,353.0999,263.1862,96.8809,0,U,57356,999,16268,.47151E-4,.1035E-4,0
STARLINK-5600,2023-099AF,2026-06-25T12:41:12.933024,15.27580385,.0001269,43.0045,352.5141,269.5247,90.5459,0,U,57357,999,16269,.36093E-4,.731E-5,0
STARLINK-6299,2023-099AG,2026-06-25T12:11:36.648384,15.27594942,.0001368,43.0025,352.3677,263.0015,97.0681,0,U,57358,999,16343,.67148E-4,.1587E-4,0
STARLINK-6347,2023-099AH,2026-06-25T05:20:04.425216,15.27560538,.0002116,43.0051,354.5159,284.8696,75.1921,0,U,57359,999,16264,-.1281E-3,-.3784E-4,0
STARLINK-6348,2023-099AJ,2026-06-25T20:13:29.783712,15.27571538,.0001636,43.0041,350.5713,277.7278,82.3388,0,U,57360,999,16274,-.20203E-4,-.818E-5,0
STARLINK-6340,2023-099AK,2026-06-25T13:34:52.667040,15.27579005,.0001531,43.0032,352.7831,273.3357,86.7319,0,U,57361,999,16269,.36264E-4,.736E-5,0
STARLINK-6343,2023-099AL,2026-06-25T20:19:02.968032,15.27577567,.0001014,43.0040,350.5962,267.4471,92.6264,0,U,57362,999,16273,.60531E-5,-.95E-6,0
STARLINK-6356,2023-099AM,2026-06-25T20:07:56.911296,15.27578853,.0001137,43.0023,350.5388,258.4731,101.5993,0,U,57363,999,16274,.12784E-4,.9E-6,0
STARLINK-6338,2023-099AN,2026-06-25T04:43:02.175744,15.27574858,.00010536,43.0032,354.3193,272.1553,87.9178,0,U,57364,999,16263,.15310689E-4,.159E-5,0
STARLINK-5007,2023-099AP,2026-06-25T12:59:43.575648,15.27543411,.0001687,43.0064,352.5992,268.9066,91.1593,0,U,57365,999,16269,.26504E-3,.703E-4,0
STARLINK-6174,2023-099AQ,2026-06-25T12:54:10.236672,15.27578487,.0001183,43.0039,352.5747,269.7547,90.3169,0,U,57366,999,16269,.30544E-4,.578E-5,0
STARLINK-6215,2023-099AR,2026-06-25T19:58:17.314176,15.27580634,.0001451,43.0049,332.3507,267.7348,92.3337,0,U,57367,999,16370,.45592E-5,-.137E-5,0
STARLINK-6218,2023-099AS,2026-06-25T13:05:16.270944,15.27591356,.0001947,43.0056,352.6340,272.1816,87.8813,0,U,57368,999,16269,.62102E-4,.1447E-4,0
STARLINK-6168,2023-099AT,2026-06-25T20:15:43.420320,15.28982749,.0002466,43.0041,350.5806,297.3765,62.6836,0,U,57369,999,16274,.12087E-2,.34619E-3,0
STARLINK-5353,2023-099AU,2026-06-25T13:14:29.351904,15.27594646,.00018,43.0056,352.6788,273.7250,86.3396,0,U,57370,999,16269,.97984E-4,.2436E-4,0
STARLINK-6032,2023-099AV,2026-06-25T20:39:23.970240,15.27578964,.0001069,43.0042,350.7029,273.9651,86.1078,0,U,57371,999,16274,.14209E-4,.129E-5,0
STARLINK-5975,2023-099AW,2026-06-25T19:47:47.747616,15.27575456,.0001463,43.0041,351.2741,270.4108,89.6576,0,U,57372,999,16273,.95513E-4,.2367E-4,0
STARLINK-6370,2023-099AX,2026-06-25T13:21:55.118016,15.27577638,.0001937,43.0055,352.7088,268.0776,91.9853,0,U,57373,999,16269,.41902E-4,.891E-5,0
